start=new Date('2023-03-30T00:00:00.000Z').valueOf();
sats=[{"CLASSIFICATION_TYPE":"U","NORAD_CAT_ID":"46705","GP_ID":"229102555","TLE_LINE2":"2 46705  53.0547  49.2260 0001042 109.2492 250.8610 15.06462248134665","BSTAR":"0.00224210000000","MEAN_MOTION_DOT":"0.00033329","TIME_SYSTEM":"UTC","EPOCH":"2023-03-29T04:28:55.128288","SITE":"AFETR","PERIAPSIS":"546.301","INCLINATION":"53.0547","EPHEMERIS_TYPE":"0","MEAN_MOTION":"15.06462248","PERIOD":"95.588","TLE_LINE1":"1 46705U 20073AM  23088.18674917  .00033329  00000-0  22421-2 0  9991","SEMIMAJOR_AXIS":"6925.158","ARG_OF_PERICENTER":"109.2492","REF_FRAME":"TEME","OBJECT_NAME":"STARLINK-1805","REV_AT_EPOCH":"13466","MEAN_MOTION_DDOT":"0.0000000000000","ELEMENT_SET_NO":"999","OBJECT_TYPE":"PAYLOAD","APOAPSIS":"547.744","LAUNCH_DATE":"2020-10-18","RCS_SIZE":"LARGE","FILE":"3874492","RA_OF_ASC_NODE":"49.2260","MEAN_ELEMENT_THEORY":"SGP4","OBJECT_ID":"2020-073AM","ECCENTRICITY":"0.00010420","COUNTRY_CODE":"US","DECAY_DATE":null,"CENTER_NAME":"EARTH","MEAN_ANOMALY":"250.8610"},{"RA_OF_ASC_NODE":"34.0449","OBJECT_ID":"2020-073AN","MEAN_ELEMENT_THEORY":"SGP4","RCS_SIZE":"LARGE","FILE":"3874492","ECCENTRICITY":"0.00010030","DECAY_DATE":null,"COUNTRY_CODE":"US","MEAN_ANOMALY":"250.7588","CENTER_NAME":"EARTH","REF_FRAME":"TEME","ARG_OF_PERICENTER":"109.3509","SEMIMAJOR_AXIS":"6925.137","OBJECT_NAME":"STARLINK-1807","REV_AT_EPOCH":"13488","MEAN_MOTION_DDOT":"0.0000000000000","APOAPSIS":"547.697","LAUNCH_DATE":"2020-10-18","ELEMENT_SET_NO":"999","OBJECT_TYPE":"PAYLOAD","SITE":"AFETR","EPHEMERIS_TYPE":"0","MEAN_MOTION":"15.06468867","PERIAPSIS":"546.308","INCLINATION":"53.0549","PERIOD":"95.588","TLE_LINE1":"1 46706U 20073AN  23088.22683357  .00037404  00000-0  25120-2 0  9992","CLASSIFICATION_TYPE":"U","TLE_LINE2":"2 46706  53.0549  34.0449 0001003 109.3509 250.7588 15.06468867134886","BSTAR":"0.00251200000000","GP_ID":"229103305","MEAN_MOTION_DOT":"0.00037404","NORAD_CAT_ID":"46706","TIME_SYSTEM":"UTC","EPOCH":"2023-03-29T05:26:38.420448"},{"SEMIMAJOR_AXIS":"6925.056","REF_FRAME":"TEME","ARG_OF_PERICENTER":"128.5126","OBJECT_NAME":"STARLINK-1808","REV_AT_EPOCH":"13516","MEAN_MOTION_DDOT":"0.0000000000000","ELEMENT_SET_NO":"999","OBJECT_TYPE":"PAYLOAD","APOAPSIS":"547.555","LAUNCH_DATE":"2020-10-18","RCS_SIZE":"LARGE","FILE":"3874492","OBJECT_ID":"2020-073AP","RA_OF_ASC_NODE":"14.0860","MEAN_ELEMENT_THEORY":"SGP4","ECCENTRICITY":"0.00009160","COUNTRY_CODE":"US","DECAY_DATE":null,"CENTER_NAME":"EARTH","MEAN_ANOMALY":"231.5945","CLASSIFICATION_TYPE":"U","NORAD_CAT_ID":"46707","TLE_LINE2":"2 46707  53.0548  14.0860 0000916 128.5126 231.5945 15.06495436135169","GP_ID":"229102055","BSTAR":"0.00392380000000","MEAN_MOTION_DOT":"0.00058804","TIME_SYSTEM":"UTC","EPOCH":"2023-03-29T05:13:22.772352","SITE":"AFETR","PERIAPSIS":"546.287","INCLINATION":"53.0548","EPHEMERIS_TYPE":"0","MEAN_MOTION":"15.06495436","PERIOD":"95.586","TLE_LINE1":"1 46707U 20073AP  23088.21762468  .00058804  00000-0  39238-2 0  9995"},{"MEAN_ANOMALY":"256.2569","CENTER_NAME":"EARTH","DECAY_DATE":null,"COUNTRY_CODE":"US","ECCENTRICITY":"0.00012130","MEAN_ELEMENT_THEORY":"SGP4","RA_OF_ASC_NODE":"48.8708","OBJECT_ID":"2020-073AR","FILE":"3874492","RCS_SIZE":"LARGE","LAUNCH_DATE":"2020-10-18","APOAPSIS":"547.865","OBJECT_TYPE":"PAYLOAD","ELEMENT_SET_NO":"999","MEAN_MOTION_DDOT":"0.0000000000000","REV_AT_EPOCH":"13467","OBJECT_NAME":"STARLINK-1810","ARG_OF_PERICENTER":"103.8555","REF_FRAME":"TEME","SEMIMAJOR_AXIS":"6925.160","TLE_LINE1":"1 46709U 20073AR  23088.29366284  .00036820  00000-0  24738-2 0  9994","PERIOD":"95.588","MEAN_MOTION":"15.06461564","EPHEMERIS_TYPE":"0","INCLINATION":"53.0546","PERIAPSIS":"546.185","SITE":"AFETR","EPOCH":"2023-03-29T07:02:52.469376","TIME_SYSTEM":"UTC","TLE_LINE2":"2 46709  53.0546  48.8708 0001213 103.8555 256.2569 15.06461564134674","GP_ID":"229102304","BSTAR":"0.00247380000000","MEAN_MOTION_DOT":"0.00036820","NORAD_CAT_ID":"46709","CLASSIFICATION_TYPE":"U"},{"CENTER_NAME":"EARTH","MEAN_ANOMALY":"247.9891","COUNTRY_CODE":"US","DECAY_DATE":null,"ECCENTRICITY":"0.00014080","RCS_SIZE":"LARGE","FILE":"3874492","RA_OF_ASC_NODE":"49.5554","MEAN_ELEMENT_THEORY":"SGP4","OBJECT_ID":"2020-073AS","ELEMENT_SET_NO":"999","OBJECT_TYPE":"PAYLOAD","LAUNCH_DATE":"2020-10-18","APOAPSIS":"547.977","MEAN_MOTION_DDOT":"0.0000000000000","OBJECT_NAME":"STARLINK-1811","REV_AT_EPOCH":"13465","SEMIMAJOR_AXIS":"6925.137","REF_FRAME":"TEME","ARG_OF_PERICENTER":"112.1248","TLE_LINE1":"1 46710U 20073AS  23088.11304190  .00036745  00000-0  24683-2 0  9990","PERIOD":"95.588","PERIAPSIS":"546.027","INCLINATION":"53.0549","EPHEMERIS_TYPE":"0","MEAN_MOTION":"15.06468921","SITE":"AFETR","TIME_SYSTEM":"UTC","EPOCH":"2023-03-29T02:42:46.820160","NORAD_CAT_ID":"46710","GP_ID":"229103055","TLE_LINE2":"2 46710  53.0549  49.5554 0001408 112.1248 247.9891 15.06468921134651","MEAN_MOTION_DOT":"0.00036745","BSTAR":"0.00246830000000","CLASSIFICATION_TYPE":"U"},{"ECCENTRICITY":"0.00009060","RA_OF_ASC_NODE":"34.0770","OBJECT_ID":"2020-073AT","MEAN_ELEMENT_THEORY":"SGP4","RCS_SIZE":"LARGE","FILE":"3874492","MEAN_ANOMALY":"259.4858","CENTER_NAME":"EARTH","DECAY_DATE":null,"COUNTRY_CODE":"US","REV_AT_EPOCH":"13488","OBJECT_NAME":"STARLINK-1813","ARG_OF_PERICENTER":"100.6233","REF_FRAME":"TEME","SEMIMAJOR_AXIS":"6925.115","LAUNCH_DATE":"2020-10-18","APOAPSIS":"547.608","ELEMENT_SET_NO":"999","OBJECT_TYPE":"PAYLOAD","MEAN_MOTION_DDOT":"0.0000000000000","EPHEMERIS_TYPE":"0","MEAN_MOTION":"15.06476066","PERIAPSIS":"546.353","INCLINATION":"53.0547","SITE":"AFETR","TLE_LINE1":"1 46711U 20073AT  23088.21945572  .00040934  00000-0  27454-2 0  9991","PERIOD":"95.587","CLASSIFICATION_TYPE":"U","TIME_SYSTEM":"UTC","EPOCH":"2023-03-29T05:16:00.974208","TLE_LINE2":"2 46711  53.0547  34.0770 0000906 100.6233 259.4858 15.06476066134882","MEAN_MOTION_DOT":"0.00040934","GP_ID":"229102806","BSTAR":"0.00274540000000","NORAD_CAT_ID":"46711"},{"SITE":"AFETR","PERIAPSIS":"546.127","INCLINATION":"53.0552","EPHEMERIS_TYPE":"0","MEAN_MOTION":"15.06466361","PERIOD":"95.588","TLE_LINE1":"1 46712U 20073AU  23088.26371690  .00034980  00000-0  23514-2 0  9998","CLASSIFICATION_TYPE":"U","NORAD_CAT_ID":"46712","MEAN_MOTION_DOT":"0.00034980","TLE_LINE2":"2 46712  53.0552  34.0065 0001276 100.6891 259.4241 15.06466361135364","GP_ID":"229074294","BSTAR":"0.00235140000000","TIME_SYSTEM":"UTC","EPOCH":"2023-03-29T06:19:45.140160","RCS_SIZE":"LARGE","FILE":"3874117","OBJECT_ID":"2020-073AU","RA_OF_ASC_NODE":"34.0065","MEAN_ELEMENT_THEORY":"SGP4","ECCENTRICITY":"0.00012760","COUNTRY_CODE":"US","DECAY_DATE":null,"CENTER_NAME":"EARTH","MEAN_ANOMALY":"259.4241","SEMIMAJOR_AXIS":"6925.145","REF_FRAME":"TEME","ARG_OF_PERICENTER":"100.6891","REV_AT_EPOCH":"13536","OBJECT_NAME":"STARLINK-1814","MEAN_MOTION_DDOT":"0.0000000000000","ELEMENT_SET_NO":"999","OBJECT_TYPE":"PAYLOAD","APOAPSIS":"547.894","LAUNCH_DATE":"2020-10-18"},{"ARG_OF_PERICENTER":"106.8524","REF_FRAME":"TEME","SEMIMAJOR_AXIS":"6925.094","REV_AT_EPOCH":"13536","OBJECT_NAME":"STARLINK-1815","MEAN_MOTION_DDOT":"0.0000000000000","LAUNCH_DATE":"2020-10-18","APOAPSIS":"547.565","ELEMENT_SET_NO":"999","OBJECT_TYPE":"PAYLOAD","MEAN_ELEMENT_THEORY":"SGP4","RA_OF_ASC_NODE":"33.8737","OBJECT_ID":"2020-073AV","RCS_SIZE":"LARGE","FILE":"3874117","ECCENTRICITY":"0.00008750","DECAY_DATE":null,"COUNTRY_CODE":"US","MEAN_ANOMALY":"253.2561","CENTER_NAME":"EARTH","CLASSIFICATION_TYPE":"U","TLE_LINE2":"2 46713  53.0542  33.8737 0000875 106.8524 253.2561 15.06482940135360","MEAN_MOTION_DOT":"0.00038737","GP_ID":"229074290","BSTAR":"0.00259940000000","NORAD_CAT_ID":"46713","TIME_SYSTEM":"UTC","EPOCH":"2023-03-29T06:18:20.612448","SITE":"AFETR","EPHEMERIS_TYPE":"0","MEAN_MOTION":"15.06482940","PERIAPSIS":"546.353","INCLINATION":"53.0542","PERIOD":"95.587","TLE_LINE1":"1 46713U 20073AV  23088.26273857  .00038737  00000-0  25994-2 0  9993"},{"PERIOD":"95.588","TLE_LINE1":"1 46714U 20073AW  23088.11994738  .00041527  00000-0  27856-2 0  9996","SITE":"AFETR","MEAN_MOTION":"15.06463849","EPHEMERIS_TYPE":"0","INCLINATION":"53.0561","PERIAPSIS":"546.456","TLE_LINE2":"2 46714  53.0561  34.5275 0000812 115.2206 244.8867 15.06463849134865","MEAN_MOTION_DOT":"0.00041527","GP_ID":"229102556","BSTAR":"0.00278560000000","NORAD_CAT_ID":"46714","EPOCH":"2023-03-29T02:52:43.453632","TIME_SYSTEM":"UTC","CLASSIFICATION_TYPE":"U","DECAY_DATE":null,"COUNTRY_CODE":"US","MEAN_ANOMALY":"244.8867","CENTER_NAME":"EARTH","OBJECT_ID":"2020-073AW","RA_OF_ASC_NODE":"34.5275","MEAN_ELEMENT_THEORY":"SGP4","FILE":"3874492","RCS_SIZE":"LARGE","ECCENTRICITY":"0.00008120","MEAN_MOTION_DDOT":"0.0000000000000","APOAPSIS":"547.580","LAUNCH_DATE":"2020-10-18","OBJECT_TYPE":"PAYLOAD","ELEMENT_SET_NO":"999","ARG_OF_PERICENTER":"115.2206","REF_FRAME":"TEME","SEMIMAJOR_AXIS":"6925.153","OBJECT_NAME":"STARLINK-1816","REV_AT_EPOCH":"13486"},{"SEMIMAJOR_AXIS":"6925.146","ARG_OF_PERICENTER":"89.8002","REF_FRAME":"TEME","REV_AT_EPOCH":"13486","OBJECT_NAME":"STARLINK-1817","MEAN_MOTION_DDOT":"0.0000000000000","OBJECT_TYPE":"PAYLOAD","ELEMENT_SET_NO":"999","LAUNCH_DATE":"2020-10-18","APOAPSIS":"547.841","FILE":"3874492","RCS_SIZE":"LARGE","RA_OF_ASC_NODE":"34.5408","MEAN_ELEMENT_THEORY":"SGP4","OBJECT_ID":"2020-073AX","ECCENTRICITY":"0.00011980","COUNTRY_CODE":"US","DECAY_DATE":null,"CENTER_NAME":"EARTH","MEAN_ANOMALY":"270.3124","CLASSIFICATION_TYPE":"U","NORAD_CAT_ID":"46715","TLE_LINE2":"2 46715  53.0544  34.5408 0001198  89.8002 270.3124 15.06466080134863","BSTAR":"0.00251940000000","GP_ID":"229103306","MEAN_MOTION_DOT":"0.00037512","EPOCH":"2023-03-29T02:47:24.761184","TIME_SYSTEM":"UTC","SITE":"AFETR","INCLINATION":"53.0544","PERIAPSIS":"546.181","MEAN_MOTION":"15.06466080","EPHEMERIS_TYPE":"0","PERIOD":"95.588","TLE_LINE1":"1 46715U 20073AX  23088.11625881  .00037512  00000-0  25194-2 0  9999"}];
